NORAD_CAT_ID,OBJECT_NAME,OBJECT_TYPE,EPOCH,MEAN_MOTION,ECCENTRICITY,INCLINATION,RA_OF_ASC_NODE,ARG_OF_PERICENTER,MEAN_ANOMALY,BSTAR,MEAN_MOTION_DOT,MEAN_MOTION_DDOT,TLE_LINE0,TLE_LINE1,TLE_LINE2,SEMIMAJOR_AXIS,PERIOD,APOGEE,PERIGEE,DECAYED
53927.0,STARLINK-5008,PAYLOAD,2024-04-25 05:07:47,15.08838658,0.0001481,53.2163,137.3527,106.4042,253.7112,9.8815e-05,1.285e-05,0.0,0 STARLINK-5008,1 53927U 22119AT  24116.21374987  .00001285  00000-0  98815-4 0  9997,2 53927  53.2163 137.3527 0001481 106.4042 253.7112 15.08838658 88297,6917.884,95.438,540.774,538.725,0.0
53927.0,STARLINK-5008,PAYLOAD,2024-04-25 08:18:34,15.08838768,0.0001461,53.2164,136.7581,105.0245,255.0909,9.2197e-05,1.18e-05,0.0,0 STARLINK-5008,1 53927U 22119AT  24116.34622992  .00001180  00000-0  92197-4 0  9994,2 53927  53.2164 136.7581 0001461 105.0245 255.0909 15.08838768 88739,6917.884,95.438,540.76,538.738,0.0
53927.0,STARLINK-5008,PAYLOAD,2024-04-26 04:58:35,15.08834657,0.0001592,53.2169,132.8918,109.6281,250.4883,3.5199e-06,-2.32e-06,0.0,0 STARLINK-5008,1 53927U 22119AT  24117.20735502 -.00000232  00000-0  35199-5 0  9990,2 53927  53.2169 132.8918 0001592 109.6281 250.4883 15.08834657 88441,6917.897,95.438,540.863,538.66,0.0
53927.0,STARLINK-5008,PAYLOAD,2024-04-26 09:44:45,15.08831835,0.000147,53.2172,132.0049,95.9188,264.1972,-4.1229e-05,-9.44e-06,0.0,0 STARLINK-5008,1 53927U 22119AT  24117.40607929 -.00000944  00000-0 -41229-4 0  9994,2 53927  53.2172 132.0049 0001470  95.9188 264.1972 15.08831835 88895,6917.905,95.438,540.787,538.753,0.0
53927.0,STARLINK-5008,PAYLOAD,2024-04-27 09:35:30,15.08849598,0.0001422,53.2168,127.5438,93.8567,266.2588,0.00016181,2.289e-05,0.0,0 STARLINK-5008,1 53927U 22119AT  24118.39966390  .00002289  00000-0  16181-3 0  9993,2 53927  53.2168 127.5438 0001422  93.8567 266.2588 15.08849598 88628,6917.851,95.437,540.7,538.732,0.0
53927.0,STARLINK-5008,PAYLOAD,2024-04-28 04:40:09,15.08831852,0.0001358,53.2159,123.9748,92.1872,267.9275,9.6898e-05,1.254e-05,0.0,0 STARLINK-5008,1 53927U 22119AT  24119.19455794  .00001254  00000-0  96898-4 0  9998,2 53927  53.2159 123.9748 0001358  92.1872 267.9275 15.08831852 88749,6917.905,95.438,540.71,538.831,0.0
53927.0,STARLINK-5008,PAYLOAD,2024-04-28 09:26:19,15.08829039,0.0001375,53.2163,123.083,92.9018,267.2132,6.9615e-05,8.2e-06,0.0,0 STARLINK-5008,1 53927U 22119AT  24119.39328193  .00000820  00000-0  69615-4 0  9997,2 53927  53.2163 123.0830 0001375  92.9018 267.2132 15.08829039 89195,6917.914,95.438,540.73,538.828,0.0
53927.0,STARLINK-5008,PAYLOAD,2024-04-28 17:23:15,15.08833004,0.0001391,53.2162,121.5973,102.029,258.0858,4.5735e-05,4.4e-06,0.0,0 STARLINK-5008,1 53927U 22119AT  24119.72448046  .00000440  00000-0  45735-4 0  9999,2 53927  53.2162 121.5973 0001391 102.0290 258.0858 15.08833004 89244,6917.902,95.438,540.729,538.804,0.0
53927.0,STARLINK-5008,PAYLOAD,2024-04-29 09:17:05,15.08843603,0.0001437,53.2165,118.6232,102.4996,257.6157,3.7934e-05,3.16e-06,0.0,0 STARLINK-5008,1 53927U 22119AT  24120.38687383  .00000316  00000-0  37934-4 0  9996,2 53927  53.2165 118.6232 0001437 102.4996 257.6157 15.08843603 88927,6917.869,95.437,540.728,538.74,0.0
53927.0,STARLINK-5008,PAYLOAD,2024-04-29 17:14:01,15.08840663,0.0001397,53.2161,117.1316,118.9787,241.1346,-7.3721e-05,-1.461e-05,0.0,0 STARLINK-5008,1 53927U 22119AT  24120.71807699 -.00001461  00000-0 -73721-4 0  9995,2 53927  53.2161 117.1316 0001397 118.9787 241.1346 15.08840663 89398,6917.878,95.438,540.71,538.777,0.0
53927.0,STARLINK-5008,PAYLOAD,2024-04-30 04:21:45,15.08814466,0.0001522,53.2163,115.055,94.6747,265.4419,-5.4929e-05,-1.161e-05,0.0,0 STARLINK-5008,1 53927U 22119AT  24121.18178031 -.00001161  00000-0 -54929-4 0  9994,2 53927  53.2163 115.0550 0001522  94.6747 265.4419 15.08814466 89047,6917.958,95.439,540.876,538.771,0.0
53927.0,STARLINK-5008,PAYLOAD,2024-04-30 05:57:08,15.08815341,0.0001429,53.2163,114.7559,102.9344,257.1808,-3.9976e-05,-9.24e-06,0.0,0 STARLINK-5008,1 53927U 22119AT  24121.24801967 -.00000924  00000-0 -39976-4 0  9993,2 53927  53.2163 114.7559 0001429 102.9344 257.1808 15.08815341 89474,6917.956,95.439,540.809,538.832,0.0
53927.0,STARLINK-5008,PAYLOAD,2024-04-30 17:04:50,15.08825525,0.0001778,53.2161,112.6724,106.0598,254.059,2.9055e-05,1.74e-06,0.0,0 STARLINK-5008,1 53927U 22119AT  24121.71169647  .00000174  00000-0  29055-4 0  9999,2 53927  53.2161 112.6724 0001778 106.0598 254.0590 15.08825525 89127,6917.925,95.438,541.02,538.56,0.0
53927.0,STARLINK-5008,PAYLOAD,2024-05-01 04:12:31,15.08843948,0.0001438,53.2164,110.5929,100.7396,259.3759,0.00013107,1.799e-05,0.0,0 STARLINK-5008,1 53927U 22119AT  24122.17536355  .00001799  00000-0  13107-3 0  9998,2 53927  53.2164 110.5929 0001438 100.7396 259.3759 15.08843948 89195,6917.868,95.437,540.728,538.739,0.0
53927.0,STARLINK-5008,PAYLOAD,2024-05-01 08:58:40,15.08847541,0.0001409,53.2171,109.7018,95.4709,264.6444,0.00011785,1.589e-05,0.0,0 STARLINK-5008,1 53927U 22119AT  24122.37408298  .00001589  00000-0  11785-3 0  9991,2 53927  53.2171 109.7018 0001409  95.4709 264.6444 15.08847541 89641,6917.857,95.437,540.697,538.748,0.0
53927.0,STARLINK-5008,PAYLOAD,2024-05-02 05:38:41,15.08844514,0.0001418,53.2168,105.8358,93.3444,266.7711,0.00039904,6.069e-05,0.0,0 STARLINK-5008,1 53927U 22119AT  24123.23520383  .00006069  00000-0  39904-3 0  9998,2 53927  53.2168 105.8358 0001418  93.3444 266.7711 15.08844514 89359,6917.867,95.437,540.713,538.751,0.0
53927.0,STARLINK-5008,PAYLOAD,2024-05-02 08:49:27,15.08855129,0.0001328,53.2158,105.2403,88.7368,271.3776,0.00033088,4.984e-05,0.0,0 STARLINK-5008,1 53927U 22119AT  24123.36768174  .00004984  00000-0  33088-3 0  9995,2 53927  53.2158 105.2403 0001328  88.7368 271.3776 15.08855129 89791,6917.834,95.437,540.618,538.78,0.0
53927.0,STARLINK-5008,PAYLOAD,2024-05-03 05:29:27,15.08856311,0.0001295,53.2158,101.3741,87.7731,272.341,0.00010149,1.328e-05,0.0,0 STARLINK-5008,1 53927U 22119AT  24124.22879314  .00001328  00000-0  10149-3 0  9992,2 53927  53.2158 101.3741 0001295  87.7731 272.3410 15.08856311 89924,6917.831,95.437,540.591,538.8,0.0
53927.0,STARLINK-5008,PAYLOAD,2024-05-03 21:23:19,15.08847545,0.0002313,53.2157,98.4007,80.2465,279.8788,-4.5957e-05,-1.02e-05,0.0,0 STARLINK-5008,1 53927U 22119AT  24124.89119433 -.00001020  00000-0 -45957-4 0  9991,2 53927  53.2157  98.4007 0002313  80.2465 279.8788 15.08847545 89602,6917.857,95.437,541.322,538.122,0.0
53927.0,STARLINK-5008,PAYLOAD,2024-05-04 05:20:15,15.08830344,0.0001225,53.2159,96.9148,88.0964,272.0168,-0.00028338,-4.794e-05,0.0,0 STARLINK-5008,1 53927U 22119AT  24125.22240053 -.00004794  00000-0 -28338-3 0  9996,2 53927  53.2159  96.9148 0001225  88.0964 272.0168 15.08830344 89655,6917.91,95.438,540.622,538.927,0.0
53927.0,STARLINK-5008,PAYLOAD,2024-05-05 03:35:39,15.0884239,0.00012,53.2171,92.7519,92.7527,267.3603,3.6069e-05,2.86e-06,0.0,0 STARLINK-5008,1 53927U 22119AT  24126.14976111  .00000286  00000-0  36069-4 0  9990,2 53927  53.2171  92.7519 0001200  92.7527 267.3603 15.08842390 89795,6917.873,95.437,540.568,538.908,0.0
53927.0,STARLINK-5008,PAYLOAD,2024-05-05 06:46:25,15.08842315,0.0001243,53.2163,92.1572,91.7079,268.4055,8.9674e-05,1.14e-05,0.0,0 STARLINK-5008,1 53927U 22119AT  24126.28223900  .00001140  00000-0  89674-4 0  9996,2 53927  53.2163  92.1572 0001243  91.7079 268.4055 15.08842315 90238,6917.873,95.437,540.598,538.878,0.0
53927.0,STARLINK-5008,PAYLOAD,2024-05-06 05:01:49,15.08848519,0.0001285,53.2162,87.9939,90.0909,270.0231,0.00044043,6.73e-05,0.0,0 STARLINK-5008,1 53927U 22119AT  24127.20960143  .00006730  00000-0  44043-3 0  9996,2 53927  53.2162  87.9939 0001285  90.0909 270.0231 15.08848519 89950,6917.854,95.437,540.608,538.83,0.0
53927.0,STARLINK-5008,PAYLOAD,2024-05-06 14:34:07,15.08859027,0.0001302,53.2159,86.2091,79.653,280.4609,0.00052747,8.121e-05,0.0,0 STARLINK-5008,1 53927U 22119AT  24127.60703654  .00008121  00000-0  52747-3 0  9998,2 53927  53.2159  86.2091 0001302  79.6530 280.4609 15.08859027 90435,6917.822,95.436,540.588,538.787,0.0
53927.0,STARLINK-5008,PAYLOAD,2024-05-06 20:55:40,15.08863469,0.0001436,53.2165,85.02,78.8683,281.2471,0.00053692,8.273e-05,0.0,0 STARLINK-5008,1 53927U 22119AT  24127.87199261  .00008273  00000-0  53692-3 0  9998,2 53927  53.2165  85.0200 0001436  78.8683 281.2471 15.08863469 90474,6917.809,95.436,540.667,538.68,0.0
53927.0,STARLINK-5008,PAYLOAD,2024-05-07 03:17:13,15.08849046,0.0001516,53.2167,83.831,80.9984,279.118,0.00020805,3.025e-05,0.0,0 STARLINK-5008,1 53927U 22119AT  24128.13695794  .00003025  00000-0  20805-3 0  9990,2 53927  53.2167  83.8310 0001516  80.9984 279.1180 15.08849046 90097,6917.853,95.437,540.766,538.669,0.0
53927.0,STARLINK-5008,PAYLOAD,2024-05-07 06:27:59,15.08853898,0.0001556,53.217,83.2355,82.3902,277.7267,0.00032049,4.818e-05,0.0,0 STARLINK-5008,1 53927U 22119AT  24128.26943615  .00004818  00000-0  32049-3 0  9996,2 53927  53.2170  83.2355 0001556  82.3902 277.7267 15.08853898 90533,6917.838,95.437,540.779,538.626,0.0
53927.0,STARLINK-5008,PAYLOAD,2024-05-07 14:24:54,15.08855192,0.0001565,53.2171,81.749,83.1304,276.9866,0.00033314,5.02e-05,0.0,0 STARLINK-5008,1 53927U 22119AT  24128.60063402  .00005020  00000-0  33314-3 0  9993,2 53927  53.2171  81.7490 0001565  83.1304 276.9866 15.08855192 90582,6917.834,95.437,540.782,538.616,0.0
53927.0,STARLINK-5008,PAYLOAD,2024-05-08 03:08:00,15.08837781,0.000132,53.2168,79.3688,91.6963,268.418,2.4729e-05,1.06e-06,0.0,0 STARLINK-5008,1 53927U 22119AT  24129.13055820  .00000106  00000-0  24729-4 0  9998,2 53927  53.2168  79.3688 0001320  91.6963 268.4180 15.08837781 90246,6917.887,95.438,540.665,538.839,0.0
53927.0,STARLINK-5008,PAYLOAD,2024-05-08 14:15:42,15.08844901,0.0001454,53.2167,77.2871,93.8216,266.2942,0.00040223,6.12e-05,0.0,0 STARLINK-5008,1 53927U 22119AT  24129.59423864  .00006120  00000-0  40223-3 0  9993,2 53927  53.2167  77.2871 0001454  93.8216 266.2942 15.08844901 90737,6917.865,95.437,540.736,538.725,0.0
